IRIDIUM 136             
1 42962U 17061H   24266.45307835  .00000227  00000+0  74079-4 0  9994
2 42962  86.3918 289.6613 0002127  90.5823 269.5616 14.34215152364145
